CCSDS_OMM_VERS = 2.0
CREATION_DATE  = 
ORIGINATOR     = 

OBJECT_NAME    = STARLINK-35902
OBJECT_ID      = 2025-271K
CENTER_NAME    = EARTH
REF_FRAME      = TEME
TIME_SYSTEM    = UTC
MEAN_ELEMENT_THEORY = SGP/SGP4

EPOCH          = 2025-12-25T17:51:22.930560
MEAN_MOTION    = 15.39632018
ECCENTRICITY   = .00015641
INCLINATION    = 53.1624
RA_OF_ASC_NODE = 125.6545
ARG_OF_PERICENTER = 52.1551
MEAN_ANOMALY   = 307.9595

EPHEMERIS_TYPE = 0
CLASSIFICATION_TYPE = U
NORAD_CAT_ID   = 66626
ELEMENT_SET_NO = 999
REV_AT_EPOCH   = 621
BSTAR          = .62689035E-3
MEAN_MOTION_DOT = .24767E-3
MEAN_MOTION_DDOT = 0

CCSDS_OMM_VERS = 2.0
CREATION_DATE  = 
ORIGINATOR     = 

OBJECT_NAME    = STARLINK-35904
OBJECT_ID      = 2025-271L
CENTER_NAME    = EARTH
REF_FRAME      = TEME
TIME_SYSTEM    = UTC
MEAN_ELEMENT_THEORY = SGP/SGP4

EPOCH          = 2025-12-25T17:38:00.621888
MEAN_MOTION    = 15.39631730
ECCENTRICITY   = .00010582
INCLINATION    = 53.1598
RA_OF_ASC_NODE = 125.5969
ARG_OF_PERICENTER = 72.2559
MEAN_ANOMALY   = 287.8562

EPHEMERIS_TYPE = 0
CLASSIFICATION_TYPE = U
NORAD_CAT_ID   = 66627
ELEMENT_SET_NO = 999
REV_AT_EPOCH   = 617
BSTAR          = .10231914E-2
MEAN_MOTION_DOT = .40762E-3
MEAN_MOTION_DDOT = 0

CCSDS_OMM_VERS = 2.0
CREATION_DATE  = 
ORIGINATOR     = 

OBJECT_NAME    = STARLINK-35862
OBJECT_ID      = 2025-271M
CENTER_NAME    = EARTH
REF_FRAME      = TEME
TIME_SYSTEM    = UTC
MEAN_ELEMENT_THEORY = SGP/SGP4

EPOCH          = 2025-12-26T04:00:01.998720
MEAN_MOTION    = 15.39568560
ECCENTRICITY   = .0001154
INCLINATION    = 53.1598
RA_OF_ASC_NODE = 123.2996
ARG_OF_PERICENTER = 91.1324
MEAN_ANOMALY   = 275.1437

EPHEMERIS_TYPE = 0
CLASSIFICATION_TYPE = U
NORAD_CAT_ID   = 66628
ELEMENT_SET_NO = 999
REV_AT_EPOCH   = 596
BSTAR          = .16697E-2
MEAN_MOTION_DOT = .66859E-3
MEAN_MOTION_DDOT = 0

CCSDS_OMM_VERS = 2.0
CREATION_DATE  = 
ORIGINATOR     = 

OBJECT_NAME    = STARLINK-35956
OBJECT_ID      = 2025-271N
CENTER_NAME    = EARTH
REF_FRAME      = TEME
TIME_SYSTEM    = UTC
MEAN_ELEMENT_THEORY = SGP/SGP4

EPOCH          = 2025-12-26T04:21:02.701728
MEAN_MOTION    = 15.56348189
ECCENTRICITY   = .0009437
INCLINATION    = 53.1717
RA_OF_ASC_NODE = 122.7083
ARG_OF_PERICENTER = 29.3734
MEAN_ANOMALY   = 330.7807

EPHEMERIS_TYPE = 0
CLASSIFICATION_TYPE = U
NORAD_CAT_ID   = 66629
ELEMENT_SET_NO = 999
REV_AT_EPOCH   = 115
BSTAR          = .61435E-2
MEAN_MOTION_DOT = .467462E-2
MEAN_MOTION_DDOT = 0

CCSDS_OMM_VERS = 2.0
CREATION_DATE  = 
ORIGINATOR     = 

OBJECT_NAME    = STARLINK-35949
OBJECT_ID      = 2025-271P
CENTER_NAME    = EARTH
REF_FRAME      = TEME
TIME_SYSTEM    = UTC
MEAN_ELEMENT_THEORY = SGP/SGP4

EPOCH          = 2025-12-26T04:00:01.998720
MEAN_MOTION    = 15.39588776
ECCENTRICITY   = .0000511
INCLINATION    = 53.1602
RA_OF_ASC_NODE = 123.2507
ARG_OF_PERICENTER = 110.9259
MEAN_ANOMALY   = 279.1945

EPHEMERIS_TYPE = 0
CLASSIFICATION_TYPE = U
NORAD_CAT_ID   = 66630
ELEMENT_SET_NO = 999
REV_AT_EPOCH   = 591
BSTAR          = .19945E-2
MEAN_MOTION_DOT = .80137E-3
MEAN_MOTION_DDOT = 0

CCSDS_OMM_VERS = 2.0
CREATION_DATE  = 
ORIGINATOR     = 

OBJECT_NAME    = STARLINK-35965
OBJECT_ID      = 2025-271Q
CENTER_NAME    = EARTH
REF_FRAME      = TEME
TIME_SYSTEM    = UTC
MEAN_ELEMENT_THEORY = SGP/SGP4

EPOCH          = 2025-12-26T04:00:01.998720
MEAN_MOTION    = 15.39578885
ECCENTRICITY   = .0000584
INCLINATION    = 53.1599
RA_OF_ASC_NODE = 123.2475
ARG_OF_PERICENTER = 113.5019
MEAN_ANOMALY   = 278.5107

EPHEMERIS_TYPE = 0
CLASSIFICATION_TYPE = U
NORAD_CAT_ID   = 66631
ELEMENT_SET_NO = 999
REV_AT_EPOCH   = 601
BSTAR          = .21238E-2
MEAN_MOTION_DOT = .85392E-3
MEAN_MOTION_DDOT = 0

CCSDS_OMM_VERS = 2.0
CREATION_DATE  = 
ORIGINATOR     = 

OBJECT_NAME    = STARLINK-35973
OBJECT_ID      = 2025-271R
CENTER_NAME    = EARTH
REF_FRAME      = TEME
TIME_SYSTEM    = UTC
MEAN_ELEMENT_THEORY = SGP/SGP4

EPOCH          = 2025-12-25T19:38:14.121600
MEAN_MOTION    = 15.39623686
ECCENTRICITY   = .00014116
INCLINATION    = 53.1597
RA_OF_ASC_NODE = 125.4024
ARG_OF_PERICENTER = 47.8203
MEAN_ANOMALY   = 312.2922

EPHEMERIS_TYPE = 0
CLASSIFICATION_TYPE = U
NORAD_CAT_ID   = 66632
ELEMENT_SET_NO = 999
REV_AT_EPOCH   = 618
BSTAR          = .13165644E-2
MEAN_MOTION_DOT = .52633E-3
MEAN_MOTION_DDOT = 0

CCSDS_OMM_VERS = 2.0
CREATION_DATE  = 
ORIGINATOR     = 

OBJECT_NAME    = STARLINK-35948
OBJECT_ID      = 2025-271S
CENTER_NAME    = EARTH
REF_FRAME      = TEME
TIME_SYSTEM    = UTC
MEAN_ELEMENT_THEORY = SGP/SGP4

EPOCH          = 2025-12-25T14:57:19.488672
MEAN_MOTION    = 15.39627398
ECCENTRICITY   = .0000943
INCLINATION    = 53.1609
RA_OF_ASC_NODE = 126.3158
ARG_OF_PERICENTER = 93.7563
MEAN_ANOMALY   = 266.3549

EPHEMERIS_TYPE = 0
CLASSIFICATION_TYPE = U
NORAD_CAT_ID   = 66633
ELEMENT_SET_NO = 999
REV_AT_EPOCH   = 619
BSTAR          = .11483E-2
MEAN_MOTION_DOT = .4582E-3
MEAN_MOTION_DDOT = 0

CCSDS_OMM_VERS = 2.0
CREATION_DATE  = 
ORIGINATOR     = 

OBJECT_NAME    = STARLINK-35967
OBJECT_ID      = 2025-271T
CENTER_NAME    = EARTH
REF_FRAME      = TEME
TIME_SYSTEM    = UTC
MEAN_ELEMENT_THEORY = SGP/SGP4

EPOCH          = 2025-12-25T16:24:07.011072
MEAN_MOTION    = 15.39630052
ECCENTRICITY   = .00012375
INCLINATION    = 53.1615
RA_OF_ASC_NODE = 125.9827
ARG_OF_PERICENTER = 86.7677
MEAN_ANOMALY   = 273.3470

EPHEMERIS_TYPE = 0
CLASSIFICATION_TYPE = U
NORAD_CAT_ID   = 66634
ELEMENT_SET_NO = 999
REV_AT_EPOCH   = 616
BSTAR          = .12795364E-2
MEAN_MOTION_DOT = .51142E-3
MEAN_MOTION_DDOT = 0

CCSDS_OMM_VERS = 2.0
CREATION_DATE  = 
ORIGINATOR     = 

OBJECT_NAME    = STARLINK-35955
OBJECT_ID      = 2025-271U
CENTER_NAME    = EARTH
REF_FRAME      = TEME
TIME_SYSTEM    = UTC
MEAN_ELEMENT_THEORY = SGP/SGP4

EPOCH          = 2025-12-25T19:17:41.940096
MEAN_MOTION    = 15.39634184
ECCENTRICITY   = .00013376
INCLINATION    = 53.1599
RA_OF_ASC_NODE = 125.3143
ARG_OF_PERICENTER = 69.5636
MEAN_ANOMALY   = 290.5513

EPHEMERIS_TYPE = 0
CLASSIFICATION_TYPE = U
NORAD_CAT_ID   = 66635
ELEMENT_SET_NO = 999
REV_AT_EPOCH   = 622
BSTAR          = .13073376E-2
MEAN_MOTION_DOT = .52277E-3
MEAN_MOTION_DDOT = 0

CCSDS_OMM_VERS = 2.0
CREATION_DATE  = 
ORIGINATOR     = 

OBJECT_NAME    = STARLINK-35968
OBJECT_ID      = 2025-271V
CENTER_NAME    = EARTH
REF_FRAME      = TEME
TIME_SYSTEM    = UTC
MEAN_ELEMENT_THEORY = SGP/SGP4

EPOCH          = 2025-12-25T17:50:54.548160
MEAN_MOTION    = 15.39645114
ECCENTRICITY   = .0001585
INCLINATION    = 53.1624
RA_OF_ASC_NODE = 125.6500
ARG_OF_PERICENTER = 46.0423
MEAN_ANOMALY   = 314.0712

EPHEMERIS_TYPE = 0
CLASSIFICATION_TYPE = U
NORAD_CAT_ID   = 66636
ELEMENT_SET_NO = 999
REV_AT_EPOCH   = 621
BSTAR          = .94429831E-3
MEAN_MOTION_DOT = .37589E-3
MEAN_MOTION_DDOT = 0

CCSDS_OMM_VERS = 2.0
CREATION_DATE  = 
ORIGINATOR     = 

OBJECT_NAME    = STARLINK-35953
OBJECT_ID      = 2025-271W
CENTER_NAME    = EARTH
REF_FRAME      = TEME
TIME_SYSTEM    = UTC
MEAN_ELEMENT_THEORY = SGP/SGP4

EPOCH          = 2025-12-25T17:37:32.185920
MEAN_MOTION    = 15.39634333
ECCENTRICITY   = .00014017
INCLINATION    = 53.1600
RA_OF_ASC_NODE = 125.5901
ARG_OF_PERICENTER = 68.9063
MEAN_ANOMALY   = 291.2092

EPHEMERIS_TYPE = 0
CLASSIFICATION_TYPE = U
NORAD_CAT_ID   = 66637
ELEMENT_SET_NO = 999
REV_AT_EPOCH   = 621
BSTAR          = .12603562E-2
MEAN_MOTION_DOT = .50371E-3
MEAN_MOTION_DDOT = 0

