STARLINK-35902          
1 66626U 25271K   25359.74401540  .00024767  00000+0  62689-3 0  9991
2 66626  53.1624 125.6545 0001564  52.1551 307.9595 15.39632018  6217
STARLINK-35904          
1 66627U 25271L   25359.73472942  .00040762  00000+0  10232-2 0  9994
2 66627  53.1598 125.5969 0001058  72.2559 287.8562 15.39631730  6171
STARLINK-35862          
1 66628U 25271M   25360.16668980  .00066859  00000+0  16697-2 0  9999
2 66628  53.1598 123.2996 0001154  91.1324 275.1437 15.39568560  5961
STARLINK-35956          
1 66629U 25271N   25360.18128127  .00467462  00000+0  61435-2 0  9991
2 66629  53.1717 122.7083 0009437  29.3734 330.7807 15.56348189  1154
STARLINK-35949          
1 66630U 25271P   25360.16668980  .00080137  00000+0  19945-2 0  9996
2 66630  53.1602 123.2507 0000511 110.9259 279.1945 15.39588776  5915
STARLINK-35965          
1 66631U 25271Q   25360.16668980  .00085392  00000+0  21238-2 0  9993
2 66631  53.1599 123.2475 0000584 113.5019 278.5107 15.39578885  6013
STARLINK-35973          
1 66632U 25271R   25359.81821900  .00052633  00000+0  13166-2 0  9990
2 66632  53.1597 125.4024 0001411  47.8203 312.2922 15.39623686  6189
STARLINK-35948          
1 66633U 25271S   25359.62314223  .00045820  00000+0  11483-2 0  9995
2 66633  53.1609 126.3158 0000943  93.7563 266.3549 15.39627398  6199
STARLINK-35967          
1 66634U 25271T   25359.68341448  .00051142  00000+0  12795-2 0  9992
2 66634  53.1615 125.9827 0001237  86.7677 273.3470 15.39630052  6169
STARLINK-35955          
1 66635U 25271U   25359.80395764  .00052277  00000+0  13073-2 0  9997
2 66635  53.1599 125.3143 0001337  69.5636 290.5513 15.39634184  6227
STARLINK-35968          
1 66636U 25271V   25359.74368690  .00037589  00000+0  94430-3 0  9995
2 66636  53.1624 125.6500 0001585  46.0423 314.0712 15.39645114  6213
STARLINK-35953          
1 66637U 25271W   25359.73440030  .00050371  00000+0  12604-2 0  9990
2 66637  53.1600 125.5901 0001401  68.9063 291.2092 15.39634333  6210
